NORAD_CAT_ID,OBJECT_NAME,OBJECT_TYPE,EPOCH,MEAN_MOTION,ECCENTRICITY,INCLINATION,RA_OF_ASC_NODE,ARG_OF_PERICENTER,MEAN_ANOMALY,BSTAR,MEAN_MOTION_DOT,MEAN_MOTION_DDOT,TLE_LINE0,TLE_LINE1,TLE_LINE2,SEMIMAJOR_AXIS,PERIOD,APOGEE,PERIGEE,DECAYED
55678.0,STARLINK-5314,PAYLOAD,2023-11-24 11:54:00,14.98328322,0.0003004,69.9996,112.6835,270.5994,89.4821,7.6647e-07,-8.4e-07,0.0,0 STARLINK-5314,1 55678U 23021BC  23328.49583977 -.00000084  00000-0  76647-6 0  9998,2 55678  69.9996 112.6835 0003004 270.5994  89.4821 14.98328322 43731,6950.198,96.107,574.151,569.975,0.0
55678.0,STARLINK-5314,PAYLOAD,2023-11-24 13:30:08,14.98329596,0.0003078,69.9995,112.5156,271.2792,88.8015,-1.064e-05,-2.2e-06,0.0,0 STARLINK-5314,1 55678U 23021BC  23328.56259962 -.00000220  00000-0 -10640-4 0  9992,2 55678  69.9995 112.5156 0003078 271.2792  88.8015 14.98329596 44047,6950.194,96.107,574.198,569.92,0.0
55678.0,STARLINK-5314,PAYLOAD,2023-11-24 19:54:40,14.98331961,0.000255,70.0009,111.8444,257.1461,102.9414,4.2782e-05,4.18e-06,0.0,0 STARLINK-5314,1 55678U 23021BC  23328.82963658  .00000418  00000-0  42782-4 0  9994,2 55678  70.0009 111.8444 0002550 257.1461 102.9414 14.98331961 44082,6950.187,96.107,573.824,570.28,0.0
55678.0,STARLINK-5314,PAYLOAD,2023-11-25 13:32:07,14.98405507,0.0002349,70.0006,109.9923,244.758,115.3336,-0.0010712,-0.00012875,0.0,0 STARLINK-5314,1 55678U 23021BC  23329.56398116 -.00012875  00000-0 -10712-2 0  9995,2 55678  70.0006 109.9923 0002349 244.7580 115.3336 14.98405507 44190,6949.959,96.102,573.457,570.192,0.0
55678.0,STARLINK-5314,PAYLOAD,2023-11-25 19:56:39,14.9840231,0.0001959,70.0007,109.3186,258.4598,101.6341,-0.00080583,-9.712e-05,0.0,0 STARLINK-5314,1 55678U 23021BC  23329.83100774 -.00009712  00000-0 -80583-3 0  9996,2 55678  70.0007 109.3186 0001959 258.4598 101.6341 14.98402310 44231,6949.969,96.102,573.196,570.473,0.0
55678.0,STARLINK-5314,PAYLOAD,2023-11-26 11:58:01,14.98341831,0.0002782,70.0005,107.6355,267.4052,92.6789,8.5208e-05,9.24e-06,0.0,0 STARLINK-5314,1 55678U 23021BC  23330.49862388  .00000924  00000-0  85208-4 0  9990,2 55678  70.0005 107.6355 0002782 267.4052  92.6789 14.98341831 44031,6950.156,96.106,573.955,570.088,0.0
55678.0,STARLINK-5314,PAYLOAD,2023-11-26 13:34:09,14.98341683,0.0002799,70.0004,107.4673,266.4036,93.6803,8.2592e-05,8.93e-06,0.0,0 STARLINK-5314,1 55678U 23021BC  23330.56538330  .00000893  00000-0  82592-4 0  9993,2 55678  70.0004 107.4673 0002799 266.4036  93.6803 14.98341683 44347,6950.157,96.106,573.967,570.076,0.0
55678.0,STARLINK-5314,PAYLOAD,2023-11-26 18:22:33,14.98342289,0.0002697,70.0007,106.9627,263.2197,96.8656,8.8365e-05,9.62e-06,0.0,0 STARLINK-5314,1 55678U 23021BC  23330.76566108  .00000962  00000-0  88365-4 0  9990,2 55678  70.0007 106.9627 0002697 263.2197  96.8656 14.98342289 44370,6950.155,96.106,573.894,570.145,0.0
55678.0,STARLINK-5314,PAYLOAD,2023-11-27 12:00:03,14.98326913,0.000302,70.0002,105.111,269.6435,90.4378,-0.0001294,-1.636e-05,0.0,0 STARLINK-5314,1 55678U 23021BC  23331.50003487 -.00001636  00000-0 -12940-3 0  9995,2 55678  70.0002 105.1110 0003020 269.6435  90.4378 14.98326913 44185,6950.202,96.107,574.166,569.968,0.0
55678.0,STARLINK-5314,PAYLOAD,2023-11-27 13:36:10,14.98328105,0.0002566,70.001,104.944,251.613,108.475,-0.00011835,-1.505e-05,0.0,0 STARLINK-5314,1 55678U 23021BC  23331.56679370 -.00001505  00000-0 -11835-3 0  9998,2 55678  70.0010 104.9440 0002566 251.6130 108.4750 14.98328105 44497,6950.199,96.107,573.847,570.28,0.0
55678.0,STARLINK-5314,PAYLOAD,2023-11-27 18:24:35,14.98321904,0.0002826,70.0001,104.4372,264.3586,95.725,-0.00015585,-1.952e-05,0.0,0 STARLINK-5314,1 55678U 23021BC  23331.76707892 -.00001952  00000-0 -15585-3 0  9993,2 55678  70.0001 104.4372 0002826 264.3586  95.7250 14.98321904 44528,6950.218,96.108,574.047,570.119,0.0
55678.0,STARLINK-5314,PAYLOAD,2023-11-28 12:02:03,14.98329874,0.0003012,70.0004,102.5854,268.1106,91.9708,-4.8188e-05,-6.68e-06,0.0,0 STARLINK-5314,1 55678U 23021BC  23332.50143127 -.00000668  00000-0 -48188-4 0  9990,2 55678  70.0004 102.5854 0003012 268.1106  91.9708 14.98329874 44332,6950.193,96.107,574.152,569.965,0.0
55678.0,STARLINK-5314,PAYLOAD,2023-11-28 13:38:11,14.98330592,0.000291,70.0009,102.4178,269.9324,90.1502,-3.7241e-05,-5.37e-06,0.0,0 STARLINK-5314,1 55678U 23021BC  23332.56819148 -.00000537  00000-0 -37241-4 0  9992,2 55678  70.0009 102.4178 0002910 269.9324  90.1502 14.98330592 44648,6950.191,96.107,574.079,570.034,0.0
55678.0,STARLINK-5314,PAYLOAD,2023-11-28 18:26:35,14.98336678,0.0002858,70.0007,101.9135,266.1642,93.919,9.3494e-06,1.9e-07,0.0,0 STARLINK-5314,1 55678U 23021BC  23332.76846471  .00000019  00000-0  93494-5 0  9999,2 55678  70.0007 101.9135 0002858 266.1642  93.9190 14.98336678 44371,6950.172,96.107,574.024,570.051,0.0
55678.0,STARLINK-5314,PAYLOAD,2023-11-29 12:04:04,14.98320828,0.0002849,70.001,100.0623,259.5922,100.4916,0.00016614,1.889e-05,0.0,0 STARLINK-5314,1 55678U 23021BC  23333.50283146  .00001889  00000-0  16614-3 0  9999,2 55678  70.0010 100.0623 0002849 259.5922 100.4916 14.98320828 44486,6950.221,96.108,574.066,570.106,0.0
55678.0,STARLINK-5314,PAYLOAD,2023-11-29 13:40:12,14.9832139,0.0002739,70.0012,99.894,261.2516,98.8333,0.00017989,2.054e-05,0.0,0 STARLINK-5314,1 55678U 23021BC  23333.56959154  .00002054  00000-0  17989-3 0  9995,2 55678  70.0012  99.8940 0002739 261.2516  98.8333 14.98321390 44794,6950.22,96.108,573.988,570.181,0.0
55678.0,STARLINK-5314,PAYLOAD,2023-11-30 12:06:05,14.98332311,0.0002848,70.0012,97.5389,259.8408,100.243,5.6022e-05,5.76e-06,0.0,0 STARLINK-5314,1 55678U 23021BC  23334.50422928  .00000576  00000-0  56022-4 0  9993,2 55678  70.0012  97.5389 0002848 259.8408 100.2430 14.98332311 44634,6950.186,96.107,574.03,570.071,0.0
55678.0,STARLINK-5314,PAYLOAD,2023-12-01 12:08:07,14.98320798,0.0002351,70.0024,95.0128,243.0715,117.0204,1.1502e-05,4.4e-07,0.0,0 STARLINK-5314,1 55678U 23021BC  23335.50563843  .00000044  00000-0  11502-4 0  9990,2 55678  70.0024  95.0128 0002351 243.0715 117.0204 14.98320798 44783,6950.221,96.108,573.72,570.452,0.0
55678.0,STARLINK-5314,PAYLOAD,2023-12-01 18:32:39,14.98327342,0.0002393,70.002,94.3392,255.2169,104.8725,4.1171e-05,3.98e-06,0.0,0 STARLINK-5314,1 55678U 23021BC  23335.77267513  .00000398  00000-0  41171-4 0  9991,2 55678  70.0020  94.3392 0002393 255.2169 104.8725 14.98327342 45121,6950.201,96.107,573.729,570.403,0.0
55678.0,STARLINK-5314,PAYLOAD,2023-12-02 12:10:06,14.98344923,0.0003099,70.0001,92.4852,278.7947,81.2861,0.00016208,1.842e-05,0.0,0 STARLINK-5314,1 55678U 23021BC  23336.50701695  .00001842  00000-0  16208-3 0  9994,2 55678  70.0001  92.4852 0003099 278.7947  81.2861 14.98344923 44939,6950.147,96.106,574.166,569.858,0.0
55678.0,STARLINK-5314,PAYLOAD,2023-12-02 13:46:13,14.98346543,0.0002491,70.0022,92.3212,250.5694,109.5196,0.00022247,2.564e-05,0.0,0 STARLINK-5314,1 55678U 23021BC  23336.57377269  .00002564  00000-0  22247-3 0  9999,2 55678  70.0022  92.3212 0002491 250.5694 109.5196 14.98346543 45243,6950.142,96.106,573.738,570.275,0.0
55678.0,STARLINK-5314,PAYLOAD,2023-12-02 16:58:29,14.9835342,0.0002762,70.0008,91.982,266.6738,93.4105,0.00026006,3.013e-05,0.0,0 STARLINK-5314,1 55678U 23021BC  23336.70728607  .00003013  00000-0  26006-3 0  9997,2 55678  70.0008  91.9820 0002762 266.6738  93.4105 14.98353420 44966,6950.12,96.105,573.905,570.066,0.0
55678.0,STARLINK-5314,PAYLOAD,2023-12-03 12:12:10,14.98300897,0.0002934,70.0006,89.9615,262.1772,97.9054,-0.00026556,-3.258e-05,0.0,0 STARLINK-5314,1 55678U 23021BC  23337.50845459 -.00003258  00000-0 -26556-3 0  9994,2 55678  70.0006  89.9615 0002934 262.1772  97.9054 14.98300897 45089,6950.283,96.109,574.187,570.109,0.0
55678.0,STARLINK-5314,PAYLOAD,2023-12-03 13:48:18,14.98299466,0.0002966,70.0007,89.7936,262.4398,97.6425,-0.00028293,-3.464e-05,0.0,0 STARLINK-5314,1 55678U 23021BC  23337.57521745 -.00003464  00000-0 -28293-3 0  9999,2 55678  70.0007  89.7936 0002966 262.4398  97.6425 14.98299466 45398,6950.287,96.109,574.214,570.091,0.0
55678.0,STARLINK-5314,PAYLOAD,2023-12-04 12:14:11,14.98319664,0.0002781,70.0008,87.4359,255.9895,104.0955,-0.00021718,-2.683e-05,0.0,0 STARLINK-5314,1 55678U 23021BC  23338.50985246 -.00002683  00000-0 -21718-3 0  9990,2 55678  70.0008  87.4359 0002781 255.9895 104.0955 14.98319664 45234,6950.225,96.108,574.023,570.157,0.0
55678.0,STARLINK-5314,PAYLOAD,2023-12-04 17:02:34,14.98327807,0.0002951,70.0009,86.9328,260.7089,99.3737,-0.00016011,-2.003e-05,0.0,0 STARLINK-5314,1 55678U 23021BC  23338.71012727 -.00002003  00000-0 -16011-3 0  9994,2 55678  70.0009  86.9328 0002951 260.7089  99.3737 14.98327807 45268,6950.2,96.107,574.116,570.014,0.0
55678.0,STARLINK-5314,PAYLOAD,2023-12-05 12:16:11,14.98318345,0.0003343,69.9998,84.9108,266.3313,93.7464,0.00041287,4.835e-05,0.0,0 STARLINK-5314,1 55678U 23021BC  23339.51124344  .00004835  00000-0  41287-3 0  9998,2 55678  69.9998  84.9108 0003343 266.3313  93.7464 14.98318345 45682,6950.229,96.108,574.417,569.77,0.0
55678.0,STARLINK-5314,PAYLOAD,2023-12-05 17:04:35,14.98325053,0.0003175,70.0002,84.4066,260.6491,99.4309,0.00047846,5.62e-05,0.0,0 STARLINK-5314,1 55678U 23021BC  23339.71151912  .00005620  00000-0  47846-3 0  9991,2 55678  70.0002  84.4066 0003175 260.6491  99.4309 14.98325053 45412,6950.208,96.107,574.28,569.866,0.0
55678.0,STARLINK-5314,PAYLOAD,2023-12-06 12:18:11,14.98341788,0.0002754,70.001,82.387,248.4682,111.6184,0.00023295,2.688e-05,0.0,0 STARLINK-5314,1 55678U 23021BC  23340.51263444  .00002688  00000-0  23295-3 0  9998,2 55678  70.0010  82.3870 0002754 248.4682 111.6184 14.98341788 45836,6950.156,96.106,573.936,570.107,0.0
55678.0,STARLINK-5314,PAYLOAD,2023-12-07 12:20:12,14.98335443,0.0002742,70.0016,79.8636,254.2751,105.8106,-8.1847e-05,-1.07e-05,0.0,0 STARLINK-5314,1 55678U 23021BC  23341.51403730 -.00001070  00000-0 -81847-4 0  9997,2 55678  70.0016  79.8636 0002742 254.2751 105.8106 14.98335443 45685,6950.176,96.107,573.947,570.135,0.0
